ENVISAT                 
1 27386U 02009A   21364.93281979  .00000098  00000+0  45784-4 0  9999
2 27386  98.1658 349.1217 0001251  85.4825 301.6608 14.38065036 39241
IDEFIX & ARIANE 42P R/B 
1 27422U 02021B   21364.81600566  .00000088  00000+0  51028-4 0  9995
2 27422  98.4296 311.0778 0012621  18.8662 341.2986 14.29350664 25366
AQUA                    
1 27424U 02022A   21364.84084400  .00000318  00000+0  80669-4 0  9993
2 27424  98.2309 303.5294 0001711  66.5399 305.9205 14.57105435 45633
CZ-4B R/B               
1 27432U 02024C   21364.92292816  .00000008  00000+0  27859-4 0  9993
2 27432  99.0759  22.5201 0050908  33.4094  28.6928 14.14121187 13005
MIDORI II (ADEOS-II)    
1 27597U 02056A   21364.84129878  .00000108  00000+0  61696-4 0  9996
2 27597  98.5885 306.4323 0001722 113.9574 246.1787 14.27542704991907
H-2A R/B                
1 27601U 02056E   21364.95615757  .00000039  00000+0  28766-4 0  9994
2 27601  98.1804  16.1696 0072913  44.6646  13.0018 14.32027424995059
CZ-4B R/B               
1 28059U 03049C   21364.83560526  .00000099  00000+0  35670-4 0  9993
2 28059  98.5077 294.1371 0049221 221.6677 138.0764 14.52697694964335
CZ-2C R/B               
1 28222U 04012C   21364.90100449  .00002253  00000+0  13455-3 0  9998
2 28222  97.7525 338.0101 0044532 269.5464 142.2385 15.11381367970763
SL-16 R/B               
1 28353U 04021B   21364.87666401  .00000234  00000+0  14766-3 0  9997
2 28353  70.9982 201.8471 0006272 219.9631 140.1030 14.14253408906511
CZ-4B R/B               
1 28415U 04035C   21364.87733785  .00001164  00000+0  79092-4 0  9998
2 28415  97.5406  43.8448 0049689 235.3869 124.2668 15.07379815948192
CZ-2C R/B               
1 28480U 04046B   21364.91858787  .00000041  00000+0  30591-4 0  9991
2 28480  98.0534   1.0897 0141875   2.1289  53.5912 14.25776881890423
ARIANE 5 R/B            
1 28499U 04049H   21364.90005650  .00000316  00000+0  46313-4 0  9990
2 28499  98.0840 115.3464 0090590 258.8391 211.8311 14.80209590919145
CZ-2D R/B               
1 28738U 05024B   21364.92159978  .00001952  00000+0  11456-3 0  9991
2 28738  97.3550  13.9676 0012928  47.8122 312.4205 15.12804916906264
SUZAKU (ASTRO-EII)      
1 28773U 05025A   21364.94483341  .00003323  00000+0  14951-3 0  9994
2 28773  31.3824 321.9055 0004173 107.1696 252.9408 15.19242399909362
ALOS (DAICHI)           
1 28931U 06002A   21364.93034747  .00000512  00000+0  10871-3 0  9991
2 28931  97.9138 331.3472 0001951  95.1851 264.9577 14.62953521849784
H-2A R/B                
1 28932U 06002B   21364.67464694  .00001189  00000+0  11326-3 0  9998
2 28932  98.3132  32.8301 0086512 285.4128 187.4589 14.92857932864854
AKARI (ASTRO-F)         
1 28939U 06005A   21364.90744400  .00011470  00000+0  26030-3 0  9992
2 28939  98.2224  52.1467 0082150 152.7873 207.7712 15.39686230867105
RESURS-DK 1             
1 29228U 06021A   21364.90927735  .00000538  00000+0  47389-4 0  9990
2 29228  69.9342 198.4070 0007037 299.9276  60.1185 15.02849449857050
GENESIS 1               
1 29252U 06029A   21364.89040740  .00002401  00000+0  11824-3 0  9990
2 29252  64.5223 263.9912 0059068 287.1034  72.3626 15.19277876853352
CZ-4B R/B               
1 29507U 06046C   21364.66570890  .00000699  00000+0  57928-4 0  9994
2 29507  97.7546  30.3445 0048201  75.2242 285.4315 15.01273641829545
CZ-2C R/B               
1 31114U 07010B   21364.93762999 -.00000019  00000+0  91376-5 0  9999
2 31114  98.2279 184.8336 0060761  69.9512 290.8192 14.19385015762658
COSMO-SKYMED 1          
1 31598U 07023A   21364.82803090  .00000480  00000+0  66808-4 0  9997
2 31598  97.8809 185.9396 0001392  96.2332 263.9040 14.82164228787981
GENESIS 2               
1 31789U 07028A   21364.91185962  .00002608  00000+0  13536-3 0  9998
2 31789  64.4975 306.6838 0028698 349.9184  10.1359 15.18281631800306
COSMOS 2428             
1 31792U 07029A   21364.87306631  .00000326  00000+0  20243-3 0  9994
2 31792  70.9247 173.4740 0010198 295.9632  64.0438 14.12429921748047
SL-16 R/B               
1 31793U 07029B   21364.87513796  .00000083  00000+0  68164-4 0  9992
2 31793  70.9759 147.0023 0002176 263.2384 211.6523 14.14463388749027
KORONAS-FOTON           
1 33504U 09003A   21364.76853695  .00001117  00000+0  55663-4 0  9990
2 33504  82.4409  24.0533 0020053 132.8877 227.4044 15.16341687712394
H-2A R/B                
1 38341U 12025E   21364.63212939  .00000761  00000+0  95917-4 0  9998
2 38341  98.5184 203.5319 0054266 228.6655 130.9882 14.84373304520607
CUSAT 2 & FALCON 9 R/B  
1 39271U 13055G   21364.56571715  .00010598  00000+0  24411-3 0  9996
2 39271  80.9636  20.0118 0552856 273.4508  80.3635 14.56520104432145
CZ-2C R/B               
1 39364U 13059B   21364.75041132  .00004800  00000+0  16831-3 0  9995
2 39364  97.1881  58.8695 0044474 212.4919 147.3583 15.28963792454414
SL-4 R/B                
1 39679U 14021B   21364.45556790  .00001200  00000+0  74251-4 0  9994
2 39679  51.6160  22.2052 0168980  91.2044 270.8290 15.07493932423617
ALOS-2                  
1 39766U 14029A   21364.79619250  .00000188  00000+0  32048-4 0  9999
2 39766  97.9224  99.3521 0001456  91.3556 268.7824 14.79473107410690
CZ-2C R/B               
1 40306U 14071B   21364.91472909  .00014920  00000+0  24858-3 0  9998
2 40306  97.3999 327.2067 0010738 278.0484  81.9549 15.52043171400683
SL-27 R/B               
1 40354U 14084B   21364.94563955  .00003322  00000+0  77378-4 0  9990
2 40354  74.7389 305.2257 0036985 212.4714 147.4224 15.41949331394619
YAOGAN 29               
1 41038U 15069A   21364.80831319  .00000198  00000+0  32852-4 0  9997
2 41038  98.0499 359.3250 0000736 110.4536 249.6751 14.80556817329339
ASTRO-H (HITOMI)        
1 41337U 16012A   21364.54940145  .00000925  00000+0  67582-4 0  9993
2 41337  31.0062  51.4678 0012269 217.3102 142.6681 14.99002575321757
HXMT (HUIYAN)           
1 42758U 17034A   21364.81335648  .00001394  00000+0  98765-4 0  9990
2 42758  43.0163 195.0678 0009455 305.4728 237.8267 15.09548106250688
CZ-2C R/B               
1 43521U 18054D   21364.36224996  .00002975  00000+0  15877-3 0  9993
2 43521  35.1545 321.0415 0080256  27.6219 332.8727 15.12043728194069
AEOLUS                  
1 43600U 18066A   21364.93049500  .00061306  00000+0  24498-3 0  9995
2 43600  96.7115   8.6524 0003963 115.8040 244.3642 15.86399198194401
SAOCOM 1A               
1 43641U 18076A   21364.76884994 -.00000512  00000+0 -57714-4 0  9998
2 43641  97.8841 188.8806 0001626  76.9902 283.1440 14.82157699174741
SAOCOM 1B               
1 46265U 20059A   21364.80005119  .00000080  00000+0  16648-4 0  9995
2 46265  97.8837 187.9806 0001445  85.1461 274.9927 14.82154863 72141
SL-4 R/B                
1 47547U 21008B   21364.77806040  .00267395  52584-5  58603-3 0  9992
2 47547  67.1172 154.7136 0210640 137.2679 224.5094 15.69376723 50581
TIANHE                  
1 48274U 21035A   21364.75264596  .00010551  00000+0  12864-3 0  9991
2 48274  41.4681 165.0119 0005604 311.0137 178.5539 15.60412816 38435
NOAA 15                 
1 25338U 98030A   21364.89336732  .00000072  00000+0  48398-4 0  9992
2 25338  98.6634  31.4720 0011333  71.1655 289.0753 14.26079403228992
DMSP 5D-3 F15 (USA 147) 
1 25991U 99067A   21364.93280365  .00000092  00000+0  69258-4 0  9993
2 25991  99.0382 348.7628 0009468 310.6766  75.5863 14.16488401139917
METEOSAT-8 (MSG-1)      
1 27509U 02040B   21364.79898715  .00000144  00000+0  00000+0 0  9996
2 27509   7.7279  51.5363 0000365 235.9552 140.9873  1.00273581 70922
DMSP 5D-3 F16 (USA 172) 
1 28054U 03048A   21364.93098573  .00000024  00000+0  36566-4 0  9999
2 28054  98.9737 350.0069 0008284  75.9475 337.8222 14.13647011939226
NOAA 18                 
1 28654U 05018A   21364.85397683  .00000112  00000+0  84322-4 0  9990
2 28654  98.9719  70.2725 0015179  88.7894 271.5016 14.12672194856176
METEOSAT-9 (MSG-2)      
1 28912U 05049B   21364.86317984  .00000026  00000+0  00000+0 0  9998
2 28912   5.6414  67.3448 0001142 198.1934 148.1267  1.00267335 58693
FORMOSAT-3 FM6          
1 29047U 06011A   21364.55551712  .00000136  00000+0  69246-4 0  9997
2 29047  71.9787  44.6322 0050120 176.8478 183.2985 14.28869853821431
FORMOSAT-3 FM1          
1 29048U 06011B   21364.93826196  .00000189  00000+0  90430-4 0  9998
2 29048  71.9670 314.1054 0042155 134.9388 225.5180 14.28838230823966
FORMOSAT-3 FM5          
1 29049U 06011C   21364.76856471  .00000204  00000+0  96484-4 0  9992
2 29049  72.0203 129.2971 0034081 157.4627 202.8016 14.28920944819739
FORMOSAT-3 FM3          
1 29050U 06011D   21364.93878497  .00000429  00000+0  99737-4 0  9998
2 29050  72.0145 217.5512 0048909  22.0848 338.2397 14.59198085838200
FORMOSAT-3 FM4          
1 29051U 06011E   21364.54533686  .00000176  00000+0  83900-4 0  9998
2 29051  72.0051  30.7183 0066970  32.8462 327.6809 14.28953407822289
FORMOSAT-3 FM2          
1 29052U 06011F   21364.71337543  .00000202  00000+0  95005-4 0  9991
2 29052  72.0347 106.2570 0038216 113.4932 247.0228 14.29062301819806
EWS-G1 (GOES 13)        
1 29155U 06018A   21364.91111391  .00000051  00000+0  00000+0 0  9993
2 29155   0.3574 100.9596 0006157 142.7059 245.4225  1.00273251 27048
METOP-A                 
1 29499U 06044A   21364.96922781  .00000518  00000+0  77800-4 0  9996
2 29499  98.4744  39.0605 0199148 175.6178 311.1049 14.66875156785975
DMSP 5D-3 F17 (USA 191) 
1 29522U 06050A   21364.95927537  .00000071  00000+0  60027-4 0  9990
2 29522  98.7752  18.1028 0010122  26.0423 334.1257 14.14061942782096
FENGYUN 3A              
1 32958U 08026A   21364.90812677  .00000025  00000+0  32043-4 0  9991
2 32958  98.4787 329.6581 0009304 144.8080 215.3712 14.18681587704323
FENGYUN 2E              
1 33463U 08066A   21364.73627719 -.00000195  00000+0  00000+0 0  9991
2 33463   5.5338  66.2325 0003574 333.6665  51.4100  1.00271324 47754
